[
    {
        "Altitude(m)": 607895.7927709796,
        "Argument of Periapsis(deg)": 0.0,
        "Eccentricity": 0.0,
        "Inclination(deg)": 60.0,
        "Latitude(deg)": 40.99827292201321,
        "Longitude(deg)": -129.9112844253791,
        "Mean Anomaly(deg)": 130.9091,
        "RAAN(deg)": 180.0,
        "Satellite Name": "Test1 800",
        "Satellite Number": 800,
        "Semi-Major Axis(m)": 6980739.136638005,
        "Time(s)": 0
    },
    {
        "Altitude(m)": 607795.1054169533,
        "Argument of Periapsis(deg)": 0.00010418945913296404,
        "Eccentricity": 0.0,
        "Inclination(deg)": 60.0,
        "Latitude(deg)": 40.53059647393617,
        "Longitude(deg)": -129.4146922292917,
        "Mean Anomaly(deg)": 131.5292061454618,
        "RAAN(deg)": 179.99957995086024,
        "Satellite Name": "Test1 800",
        "Satellite Number": 800,
        "Semi-Major Axis(m)": 6980739.136638005,
        "Time(s)": 10
    }
]